start=new Date('2023-04-03T00:00:00.000Z').valueOf();
sats=[{"LAUNCH_DATE":"2022-05-14","MEAN_ANOMALY":"262.6362","TIME_SYSTEM":"UTC","NORAD_CAT_ID":"52614","RCS_SIZE":"LARGE","OBJECT_NAME":"STARLINK-3982","PERIOD":"95.437","SEMIMAJOR_AXIS":"6917.867","OBJECT_ID":"2022-052S","REV_AT_EPOCH":"4954","EPHEMERIS_TYPE":"0","TLE_LINE1":"1 52614U 22052S   23092.79668942  .00007500  00000-0  48877-3 0  9995","ECCENTRICITY":"0.00015680","TLE_LINE2":"2 52614  53.2150  41.0312 0001568  97.4808 262.6362 15.08844481 49545","ELEMENT_SET_NO":"999","BSTAR":"0.00048877000000","OBJECT_TYPE":"PAYLOAD","DECAY_DATE":null,"PERIAPSIS":"538.647","EPOCH":"2023-04-02T19:07:13.965888","APOAPSIS":"540.816","RA_OF_ASC_NODE":"41.0312","CLASSIFICATION_TYPE":"U","ARG_OF_PERICENTER":"97.4808","FILE":"3878137","GP_ID":"229322793","COUNTRY_CODE":"US","MEAN_MOTION_DDOT":"0.0000000000000","MEAN_MOTION_DOT":"0.00007500","MEAN_MOTION":"15.08844481","MEAN_ELEMENT_THEORY":"SGP4","SITE":"AFETR","INCLINATION":"53.2150","REF_FRAME":"TEME","CENTER_NAME":"EARTH"},{"MEAN_MOTION":"15.08839920","MEAN_MOTION_DDOT":"0.0000000000000","MEAN_MOTION_DOT":"0.00005375","MEAN_ELEMENT_THEORY":"SGP4","SITE":"AFETR","INCLINATION":"53.2162","REF_FRAME":"TEME","CENTER_NAME":"EARTH","PERIAPSIS":"538.664","EPOCH":"2023-04-02T21:52:10.488000","APOAPSIS":"540.827","CLASSIFICATION_TYPE":"U","RA_OF_ASC_NODE":"55.5182","ARG_OF_PERICENTER":"99.1946","FILE":"3878419","GP_ID":"229352989","COUNTRY_CODE":"US","OBJECT_ID":"2022-052T","EPHEMERIS_TYPE":"0","REV_AT_EPOCH":"4897","TLE_LINE1":"1 52615U 22052T   23092.91123250  .00005375  00000-0  35554-3 0  9994","TLE_LINE2":"2 52615  53.2162  55.5182 0001563  99.1946 260.9223 15.08839920 48976","ECCENTRICITY":"0.00015630","ELEMENT_SET_NO":"999","BSTAR":"0.00035554000000","DECAY_DATE":null,"OBJECT_TYPE":"PAYLOAD","LAUNCH_DATE":"2022-05-14","MEAN_ANOMALY":"260.9223","NORAD_CAT_ID":"52615","TIME_SYSTEM":"UTC","OBJECT_NAME":"STARLINK-4011","RCS_SIZE":"LARGE","PERIOD":"95.438","SEMIMAJOR_AXIS":"6917.881"},{"SEMIMAJOR_AXIS":"6917.857","PERIOD":"95.437","OBJECT_NAME":"STARLINK-4015","RCS_SIZE":"LARGE","MEAN_ANOMALY":"263.9465","NORAD_CAT_ID":"52616","TIME_SYSTEM":"UTC","LAUNCH_DATE":"2022-05-14","DECAY_DATE":null,"OBJECT_TYPE":"PAYLOAD","ELEMENT_SET_NO":"999","BSTAR":"0.00078402000000","TLE_LINE1":"1 52616U 22052U   23092.25940883  .00012214  00000-0  78402-3 0  9990","TLE_LINE2":"2 52616  53.2163  43.4426 0001344  96.1681 263.9465 15.08847508 49091","ECCENTRICITY":"0.00013440","OBJECT_ID":"2022-052U","REV_AT_EPOCH":"4909","EPHEMERIS_TYPE":"0","GP_ID":"229319743","COUNTRY_CODE":"US","ARG_OF_PERICENTER":"96.1681","FILE":"3878126","CLASSIFICATION_TYPE":"U","RA_OF_ASC_NODE":"43.4426","PERIAPSIS":"538.793","APOAPSIS":"540.652","EPOCH":"2023-04-02T06:13:32.922912","REF_FRAME":"TEME","CENTER_NAME":"EARTH","INCLINATION":"53.2163","SITE":"AFETR","MEAN_MOTION":"15.08847508","MEAN_MOTION_DOT":"0.00012214","MEAN_MOTION_DDOT":"0.0000000000000","MEAN_ELEMENT_THEORY":"SGP4"},{"FILE":"3878137","ARG_OF_PERICENTER":"88.1210","COUNTRY_CODE":"US","GP_ID":"229322798","EPOCH":"2023-04-02T20:21:25.617024","APOAPSIS":"540.508","PERIAPSIS":"539.029","RA_OF_ASC_NODE":"40.8024","CLASSIFICATION_TYPE":"U","INCLINATION":"53.2191","CENTER_NAME":"EARTH","REF_FRAME":"TEME","MEAN_ELEMENT_THEORY":"SGP4","MEAN_MOTION_DOT":"0.00001200","MEAN_MOTION_DDOT":"0.0000000000000","MEAN_MOTION":"15.08832477","SITE":"AFETR","OBJECT_NAME":"STARLINK-3996","RCS_SIZE":"LARGE","SEMIMAJOR_AXIS":"6917.903","PERIOD":"95.438","LAUNCH_DATE":"2022-05-14","TIME_SYSTEM":"UTC","NORAD_CAT_ID":"52617","MEAN_ANOMALY":"271.9905","BSTAR":"0.00009346700000","ELEMENT_SET_NO":"999","OBJECT_TYPE":"PAYLOAD","DECAY_DATE":null,"REV_AT_EPOCH":"4955","EPHEMERIS_TYPE":"0","OBJECT_ID":"2022-052V","ECCENTRICITY":"0.00010690","TLE_LINE2":"2 52617  53.2191  40.8024 0001069  88.1210 271.9905 15.08832477 49559","TLE_LINE1":"1 52617U 22052V   23092.84821316  .00001200  00000-0  93467-4 0  9997"},{"OBJECT_ID":"2022-052W","REV_AT_EPOCH":"4917","EPHEMERIS_TYPE":"0","TLE_LINE1":"1 52618U 22052W   23092.85189614  .00007994  00000-0  51969-3 0  9993","TLE_LINE2":"2 52618  53.2172  40.7886 0001709  74.1809 285.9371 15.08845627 49175","ECCENTRICITY":"0.00017090","ELEMENT_SET_NO":"999","BSTAR":"0.00051969000000","DECAY_DATE":null,"OBJECT_TYPE":"PAYLOAD","LAUNCH_DATE":"2022-05-14","MEAN_ANOMALY":"285.9371","NORAD_CAT_ID":"52618","TIME_SYSTEM":"UTC","OBJECT_NAME":"STARLINK-3983","RCS_SIZE":"LARGE","PERIOD":"95.437","SEMIMAJOR_AXIS":"6917.863","MEAN_MOTION":"15.08845627","MEAN_MOTION_DDOT":"0.0000000000000","MEAN_MOTION_DOT":"0.00007994","MEAN_ELEMENT_THEORY":"SGP4","SITE":"AFETR","INCLINATION":"53.2172","REF_FRAME":"TEME","CENTER_NAME":"EARTH","PERIAPSIS":"538.546","EPOCH":"2023-04-02T20:26:43.826496","APOAPSIS":"540.910","CLASSIFICATION_TYPE":"U","RA_OF_ASC_NODE":"40.7886","ARG_OF_PERICENTER":"74.1809","FILE":"3878419","GP_ID":"229352238","COUNTRY_CODE":"US"},{"INCLINATION":"53.2158","CENTER_NAME":"EARTH","REF_FRAME":"TEME","MEAN_ELEMENT_THEORY":"SGP4","MEAN_MOTION":"15.08847536","MEAN_MOTION_DDOT":"0.0000000000000","MEAN_MOTION_DOT":"0.00004219","SITE":"AFETR","FILE":"3878137","ARG_OF_PERICENTER":"87.9522","COUNTRY_CODE":"US","GP_ID":"229322806","EPOCH":"2023-04-02T20:17:29.747616","APOAPSIS":"540.537","PERIAPSIS":"538.907","CLASSIFICATION_TYPE":"U","RA_OF_ASC_NODE":"40.8106","BSTAR":"0.00028296000000","ELEMENT_SET_NO":"999","OBJECT_TYPE":"PAYLOAD","DECAY_DATE":null,"REV_AT_EPOCH":"4955","EPHEMERIS_TYPE":"0","OBJECT_ID":"2022-052X","TLE_LINE2":"2 52619  53.2158  40.8106 0001178  87.9522 272.1604 15.08847536 49550","ECCENTRICITY":"0.00011780","TLE_LINE1":"1 52619U 22052X   23092.84548319  .00004219  00000-0  28296-3 0  9998","RCS_SIZE":"LARGE","OBJECT_NAME":"STARLINK-3741","SEMIMAJOR_AXIS":"6917.857","PERIOD":"95.437","LAUNCH_DATE":"2022-05-14","NORAD_CAT_ID":"52619","TIME_SYSTEM":"UTC","MEAN_ANOMALY":"272.1604"},{"REF_FRAME":"TEME","CENTER_NAME":"EARTH","INCLINATION":"53.2169","SITE":"AFETR","MEAN_MOTION":"15.08838312","MEAN_MOTION_DOT":"-0.00000351","MEAN_MOTION_DDOT":"0.0000000000000","MEAN_ELEMENT_THEORY":"SGP4","GP_ID":"229353218","COUNTRY_CODE":"US","ARG_OF_PERICENTER":"92.1225","FILE":"3878419","CLASSIFICATION_TYPE":"U","RA_OF_ASC_NODE":"55.5352","PERIAPSIS":"538.723","EPOCH":"2023-04-02T21:46:52.039200","APOAPSIS":"540.779","OBJECT_TYPE":"PAYLOAD","DECAY_DATE":null,"ELEMENT_SET_NO":"999","BSTAR":"-0.00000393480000","TLE_LINE1":"1 52620U 22052Y   23092.90754675 -.00000351  00000-0 -39348-5 0  9998","TLE_LINE2":"2 52620  53.2169  55.5352 0001486  92.1225 267.9937 15.08838312 48978","ECCENTRICITY":"0.00014860","OBJECT_ID":"2022-052Y","EPHEMERIS_TYPE":"0","REV_AT_EPOCH":"4897","SEMIMAJOR_AXIS":"6917.886","PERIOD":"95.438","RCS_SIZE":"LARGE","OBJECT_NAME":"STARLINK-3975","MEAN_ANOMALY":"267.9937","NORAD_CAT_ID":"52620","TIME_SYSTEM":"UTC","LAUNCH_DATE":"2022-05-14"},{"TLE_LINE1":"1 52621U 22052Z   23092.24101230 -.00001683  00000-0 -87678-4 0  9996","ECCENTRICITY":"0.00011690","TLE_LINE2":"2 52621  53.2171  43.5276 0001169  91.8604 268.2522 15.08832431 49082","OBJECT_ID":"2022-052Z","REV_AT_EPOCH":"4908","EPHEMERIS_TYPE":"0","OBJECT_TYPE":"PAYLOAD","DECAY_DATE":null,"ELEMENT_SET_NO":"999","BSTAR":"-0.00008767800000","MEAN_ANOMALY":"268.2522","TIME_SYSTEM":"UTC","NORAD_CAT_ID":"52621","LAUNCH_DATE":"2022-05-14","PERIOD":"95.438","SEMIMAJOR_AXIS":"6917.904","OBJECT_NAME":"STARLINK-3984","RCS_SIZE":"LARGE","SITE":"AFETR","MEAN_MOTION_DOT":"-0.00001683","MEAN_MOTION_DDOT":"0.0000000000000","MEAN_MOTION":"15.08832431","MEAN_ELEMENT_THEORY":"SGP4","REF_FRAME":"TEME","CENTER_NAME":"EARTH","INCLINATION":"53.2171","RA_OF_ASC_NODE":"43.5276","CLASSIFICATION_TYPE":"U","PERIAPSIS":"538.960","APOAPSIS":"540.577","EPOCH":"2023-04-02T05:47:03.462720","GP_ID":"229319002","COUNTRY_CODE":"US","ARG_OF_PERICENTER":"91.8604","FILE":"3878126"},{"MEAN_ELEMENT_THEORY":"SGP4","MEAN_MOTION_DOT":"0.00029292","MEAN_MOTION_DDOT":"0.0000000000000","MEAN_MOTION":"15.08853989","SITE":"AFETR","INCLINATION":"53.2157","CENTER_NAME":"EARTH","REF_FRAME":"TEME","EPOCH":"2023-04-02T08:10:47.530560","APOAPSIS":"540.434","PERIAPSIS":"538.971","RA_OF_ASC_NODE":"58.0801","CLASSIFICATION_TYPE":"U","FILE":"3878126","ARG_OF_PERICENTER":"101.5432","COUNTRY_CODE":"US","GP_ID":"229319252","REV_AT_EPOCH":"4889","EPHEMERIS_TYPE":"0","OBJECT_ID":"2022-052AA","ECCENTRICITY":"0.00010570","TLE_LINE2":"2 52622  53.2157  58.0801 0001057 101.5432 258.5679 15.08853989 48890","TLE_LINE1":"1 52622U 22052AA  23092.34082790  .00029292  00000-0  18502-2 0  9999","BSTAR":"0.00185020000000","ELEMENT_SET_NO":"999","DECAY_DATE":null,"OBJECT_TYPE":"PAYLOAD","LAUNCH_DATE":"2022-05-14","TIME_SYSTEM":"UTC","NORAD_CAT_ID":"52622","MEAN_ANOMALY":"258.5679","RCS_SIZE":"LARGE","OBJECT_NAME":"STARLINK-4008","PERIOD":"95.437","SEMIMAJOR_AXIS":"6917.838"},{"REF_FRAME":"TEME","CENTER_NAME":"EARTH","INCLINATION":"53.2181","SITE":"AFETR","MEAN_MOTION":"15.08832789","MEAN_MOTION_DDOT":"0.0000000000000","MEAN_MOTION_DOT":"-0.00004105","MEAN_ELEMENT_THEORY":"SGP4","GP_ID":"229322841","COUNTRY_CODE":"US","ARG_OF_PERICENTER":"95.8015","FILE":"3878139","CLASSIFICATION_TYPE":"U","RA_OF_ASC_NODE":"40.8670","PERIAPSIS":"538.903","APOAPSIS":"540.631","EPOCH":"2023-04-02T20:00:13.081536","OBJECT_TYPE":"PAYLOAD","DECAY_DATE":null,"ELEMENT_SET_NO":"999","BSTAR":"-0.00024005000000","TLE_LINE1":"1 52623U 22052AB  23092.83348474 -.00004105  00000-0 -24005-3 0  9992","TLE_LINE2":"2 52623  53.2181  40.8670 0001249  95.8015 264.3120 15.08832789 49551","ECCENTRICITY":"0.00012490","OBJECT_ID":"2022-052AB","REV_AT_EPOCH":"4955","EPHEMERIS_TYPE":"0","SEMIMAJOR_AXIS":"6917.902","PERIOD":"95.438","OBJECT_NAME":"STARLINK-3986","RCS_SIZE":"LARGE","MEAN_ANOMALY":"264.3120","NORAD_CAT_ID":"52623","TIME_SYSTEM":"UTC","LAUNCH_DATE":"2022-05-14"}];
